[{"OBJECT_NAME":"STARLINK-2356","OBJECT_ID":"2021-021AN","EPOCH":"2026-03-09T20:36:38.859840","MEAN_MOTION":15.30186543,"ECCENTRICITY":0.00011076,"INCLINATION":53.159,"RA_OF_ASC_NODE":280.2025,"ARG_OF_PERICENTER":103.5872,"MEAN_ANOMALY":256.5252,"EPHEMERIS_TYPE":0,"CLASSIFICATION_TYPE":"U","NORAD_CAT_ID":47896,"ELEMENT_SET_NO":999,"REV_AT_EPOCH":27604,"BSTAR":0.0001012518,"MEAN_MOTION_DOT":2.64e-5,"MEAN_MOTION_DDOT":0},{"OBJECT_NAME":"PROTOMETHEE","OBJECT_ID":"2023-174BT","EPOCH":"2026-03-09T23:28:08.029344","MEAN_MOTION":15.30202663,"ECCENTRICITY":0.00088339,"INCLINATION":97.3826,"RA_OF_ASC_NODE":147.9552,"ARG_OF_PERICENTER":148.5993,"MEAN_ANOMALY":211.5776,"EPHEMERIS_TYPE":0,"CLASSIFICATION_TYPE":"U","NORAD_CAT_ID":58321,"ELEMENT_SET_NO":999,"REV_AT_EPOCH":12979,"BSTAR":0.00015715731,"MEAN_MOTION_DOT":4.52e-5,"MEAN_MOTION_DDOT":0}]
